OBJECT_NAME,OBJECT_ID,EPOCH,MEAN_MOTION,ECCENTRICITY,INCLINATION,RA_OF_ASC_NODE,ARG_OF_PERICENTER,MEAN_ANOMALY,EPHEMERIS_TYPE,CLASSIFICATION_TYPE,NORAD_CAT_ID,ELEMENT_SET_NO,REV_AT_EPOCH,BSTAR,MEAN_MOTION_DOT,MEAN_MOTION_DDOT
SL-8 R/B,1985-006B,2026-07-12T21:47:52.147680,14.37844513,.00192774,74.0452,30.7299,274.1696,198.9427,0,U,15483,999,17202,.51833777E-4,.13E-5,0
SL-12 R/B(2),1985-042D,2026-07-13T08:06:43.163712,14.22010707,.00372517,71.1066,182.2653,288.9019,171.6007,0,U,15772,999,13225,.1145909E-5,-.45E-6,0
SL-14 R/B,1985-069B,2026-07-13T03:38:47.020704,14.86534369,.00199286,82.5264,266.9480,133.6634,226.6239,0,U,15945,999,19147,.2380795E-4,.236E-5,0
SL-16 R/B,1985-097B,2026-07-13T07:50:09.953376,14.16612271,.00055571,71.0008,236.0472,55.5288,21.2638,0,U,16182,999,10502,.3571258E-4,.23E-6,0
SL-14 R/B,1986-006B,2026-07-13T07:06:06.058080,14.86967450,.00753251,82.5282,141.5445,215.2341,144.3884,0,U,16496,999,16787,.22519327E-4,.238E-5,0
COSMOS 1743,1986-034A,2026-07-13T07:24:57.060864,15.69468367,.0005346,82.5283,300.9082,182.4895,177.6342,0,U,16719,999,19988,.34158383E-3,.40278E-3,0
SL-14 R/B,1986-046B,2026-07-13T06:50:30.260544,14.85689717,.00233598,82.4837,321.5152,169.2264,190.9458,0,U,16792,999,14505,.26068498E-4,.252E-5,0
SL-14 R/B,1986-055B,2026-07-13T00:18:42.945120,14.85739443,.00173128,82.5201,8.8481,278.2008,174.9379,0,U,16882,999,13797,.22433003E-4,.219E-5,0
AJISAI (EGS),1986-061A,2026-07-13T08:04:06.352032,12.44516660,.00110938,50.0100,66.9879,247.1661,274.9656,0,U,16908,999,48364,.885014E-6,-.97E-6,0
SL-14 R/B,1987-024B,2026-07-12T20:51:09.540288,14.86230750,.0017626,82.5295,335.1103,201.6604,158.3869,0,U,17567,999,10672,.26128443E-4,.255E-5,0
COSMOS 1833,1987-027A,2026-07-12T22:42:46.768896,14.13065950,.00240842,70.9212,62.7271,12.3136,347.8569,0,U,17589,999,2801,.8567228E-4,.112E-5,0
SL-16 R/B,1987-027B,2026-07-12T21:48:34.713504,14.17173190,.00071351,71.0030,12.6244,283.8055,76.2275,0,U,17590,999,3308,-.357354E-6,-.49E-6,0
SL-14 R/B,1987-038B,2026-07-12T22:16:44.552352,14.85460619,.00207614,82.5011,178.8250,109.1337,251.2130,0,U,17912,999,9782,.23115639E-4,.225E-5,0
COSMOS 1844,1987-041A,2026-07-13T06:30:31.315392,14.14580064,.00314444,70.8997,129.2878,198.0297,161.9712,0,U,17973,999,2134,.93890061E-4,.133E-5,0
SL-14 R/B,1987-055B,2026-07-13T02:02:33.599904,14.85726312,.00195517,82.4973,230.8148,322.4660,37.5190,0,U,18153,999,8855,.20610865E-4,.203E-5,0
COSMOS 1867,1987-060A,2026-07-13T07:56:42.785664,14.31518364,.00170951,65.0119,314.8405,282.0023,77.9145,0,U,18187,999,3792,.14220912E-4,-.62E-6,0
SL-14 R/B,1988-001B,2026-07-13T06:59:05.402400,14.85626071,.00180195,82.5122,77.2146,178.0088,182.1203,0,U,18749,999,6067,.22428119E-4,.219E-5,0
COSMOS 1933,1988-020A,2026-07-13T06:13:11.554464,15.18881961,.00057825,82.5141,126.6153,112.3339,247.8509,0,U,18958,999,6928,.8232689E-4,.1748E-4,0
SL-3 R/B,1988-032B,2026-07-13T05:32:08.610144,15.21022717,.00263303,97.5268,177.2501,152.3197,207.9446,0,U,19046,999,7118,.10727122E-3,.2329E-4,0
SL-16 R/B,1988-039B,2026-07-12T21:50:22.102656,14.19631281,.00207324,71.0137,163.7667,153.1578,207.0625,0,U,19120,999,97615,-.63696242E-4,-.183E-5,0
COSMOS 1953,1988-050A,2026-07-12T23:32:03.589440,15.30319895,.00116852,82.5060,32.0148,47.1296,313.0923,0,U,19210,999,5693,.17685258E-3,.5229E-4,0
SL-8 R/B,1988-053B,2026-07-12T14:37:01.889760,14.38977367,.0019643,74.0460,242.1964,28.6362,132.6191,0,U,19257,999,99456,.4655E-4,.118E-5,0
COSMOS 1975,1988-093A,2026-07-12T22:20:50.457120,15.29645818,.00125491,82.5192,351.7977,89.4067,270.8611,0,U,19573,999,3854,.14465271E-3,.4197E-4,0
SL-14 R/B,1988-093B,2026-07-13T08:05:25.840032,14.85759423,.00201714,82.5317,284.0962,346.6395,79.0021,0,U,19574,999,1967,.21617696E-4,.213E-5,0
SL-16 R/B,1988-102B,2026-07-12T13:47:47.871168,14.16167252,.0014458,70.9981,248.7209,189.6824,170.4023,0,U,19650,999,94457,-.85082E-4,-.216E-5,0
INTERCOSMOS 24,1989-080A,2026-07-12T23:40:21.665568,12.59691388,.11873249,82.6048,22.8526,2.0723,358.4698,0,U,20261,999,68257,.59295409E-4,.216E-5,0
SL-14 R/B,1989-080C,2026-07-13T03:53:53.221056,12.50578237,.12286316,82.5936,92.6184,257.9435,88.1663,0,U,20262,999,67583,.19254792E-4,.66E-6,0
DELTA 1 R/B,1989-089B,2026-07-13T00:21:33.930720,14.50747081,.00706504,97.0634,21.4399,86.7138,274.2140,0,U,20323,999,91390,.46726283E-4,.155E-5,0
ARIANE 40 R/B,1990-005H,2026-07-13T04:07:57.788832,14.39940196,.00101378,98.2946,250.9785,179.9827,180.1364,0,U,20443,999,91086,.48495437E-4,.11E-5,0
DELTA 2 R/B(1),1990-008B,2026-07-12T22:15:41.067360,15.73246033,.00600556,35.6002,62.9055,354.6112,5.3978,0,U,20453,999,94575,.57423144E-3,.92909E-3,0
